GALAXY 35 (G-35)        
1 54741U 22170A   26091.50006447 -.00000172  00000+0  00000+0 0  9996
2 54741   0.0152 226.8429 0002059 149.0855 260.8355  1.00272700 12126
GALAXY 36 (G-36)        
1 54742U 22170B   26091.44894109 -.00000195  00000+0  00000+0 0  9995
2 54742   0.0142 162.0405 0002473 250.3408 210.0287  1.00271210 12004
METEOSAT-12 (MTG-I1)    
1 54743U 22170C   26091.32388058 -.00000017  00000+0  00000+0 0  9997
2 54743   0.7359  26.0003 0001696 296.2303 343.7115  1.00273796 12201
APSTAR-6E               
1 55239U 23005A   26090.92267031 -.00000329  00000+0  00000+0 0  9994
2 55239   0.0124 196.2836 0000481 121.1212 338.0313  1.00272176 17916
USA 342                 
1 55263U 23008A   26089.26078750  .00000121  00000+0  00000+0 0  9996
2 55263   0.0088 210.8866 0000285 240.4342 214.0288  1.00274330 11720
LDPE-3A                 
1 55264U 23008B   26090.39032308 -.00000256  00000+0  00000+0 0  9992
2 55264   2.1464  82.6238 0000238 302.2397  95.3188  0.99991805 11049
ELEKTRO-L 4             
1 55506U 23016A   26091.01317152 -.00000069  00000+0  00000+0 0  9995
2 55506   0.0531 340.4397 0001291 316.5408  62.9891  1.00273991 11562
AMAZONAS NEXUS          
1 55508U 23017A   26090.97683713  .00000000  00000+0  00000+0 0  9995
2 55508   0.0188  76.1075 0005354 307.6535  96.2497  1.00267315  6271
ZHONGXING-26            
1 55686U 23023A   26089.99393369 -.00000369  00000+0  00000+0 0  9993
2 55686   0.0661  63.4044 0004106 346.9958 260.8813  1.00269444 11449
GAOFEN-13 02            
1 55912U 23036A   26091.37390845 -.00000230  00000+0  00000+0 0  9997
2 55912   1.0241 351.3348 0004880 338.6101 142.5662  1.00269046 11322
SES-18                  
1 55970U 23038A   26091.44616773 -.00000111  00000+0  00000+0 0  9990
2 55970   0.0354 262.8641 0001820  63.2514 281.1969  1.00272007 11334
SES-19                  
1 55971U 23038B   26091.51364270  .00000078  00000+0  00000+0 0  9992
2 55971   0.0319 277.1436 0001780  90.5378 232.1885  1.00272262 11317
INTELSAT 40E (IS-40E)   
1 56174U 23052A   26091.37726745 -.00000184  00000+0  00000+0 0  9996
2 56174   0.0111 193.1687 0000688 215.1141 186.2629  1.00269491 11053
VIASAT-3 F1             
1 56370U 23060A   26091.44894109 -.00000195  00000+0  00000+0 0  9993
2 56370   0.0145 237.6111 0000823 219.0072 165.8940  1.00270352 10664
ARCTURUS                
1 56371U 23060B   26091.48092123 -.00000070  00000+0  00000+0 0  9996
2 56371   2.5777  80.8980 0001069 313.6750  40.8750  1.00272455 10681
