[{"OBJECT_NAME":"GALAXY 35 (G-35)","OBJECT_ID":"2022-170A","EPOCH":"2026-04-01T12:00:05.570208","MEAN_MOTION":1.002727,"ECCENTRICITY":0.0002059,"INCLINATION":0.0152,"RA_OF_ASC_NODE":226.8429,"ARG_OF_PERICENTER":149.0855,"MEAN_ANOMALY":260.8355,"EPHEMERIS_TYPE":0,"CLASSIFICATION_TYPE":"U","NORAD_CAT_ID":54741,"ELEMENT_SET_NO":999,"REV_AT_EPOCH":1212,"BSTAR":0,"MEAN_MOTION_DOT":-1.72e-6,"MEAN_MOTION_DDOT":0},{"OBJECT_NAME":"GALAXY 36 (G-36)","OBJECT_ID":"2022-170B","EPOCH":"2026-04-01T10:46:28.510176","MEAN_MOTION":1.0027121,"ECCENTRICITY":0.0002473,"INCLINATION":0.0142,"RA_OF_ASC_NODE":162.0405,"ARG_OF_PERICENTER":250.3408,"MEAN_ANOMALY":210.0287,"EPHEMERIS_TYPE":0,"CLASSIFICATION_TYPE":"U","NORAD_CAT_ID":54742,"ELEMENT_SET_NO":999,"REV_AT_EPOCH":1200,"BSTAR":0,"MEAN_MOTION_DOT":-1.95e-6,"MEAN_MOTION_DDOT":0},{"OBJECT_NAME":"METEOSAT-12 (MTG-I1)","OBJECT_ID":"2022-170C","EPOCH":"2026-04-01T07:46:23.282112","MEAN_MOTION":1.00273796,"ECCENTRICITY":0.0001696,"INCLINATION":0.7359,"RA_OF_ASC_NODE":26.0003,"ARG_OF_PERICENTER":296.2303,"MEAN_ANOMALY":343.7115,"EPHEMERIS_TYPE":0,"CLASSIFICATION_TYPE":"U","NORAD_CAT_ID":54743,"ELEMENT_SET_NO":999,"REV_AT_EPOCH":1220,"BSTAR":0,"MEAN_MOTION_DOT":-1.7e-7,"MEAN_MOTION_DDOT":0},{"OBJECT_NAME":"APSTAR-6E","OBJECT_ID":"2023-005A","EPOCH":"2026-03-31T22:08:38.714784","MEAN_MOTION":1.00272176,"ECCENTRICITY":4.81e-5,"INCLINATION":0.0124,"RA_OF_ASC_NODE":196.2836,"ARG_OF_PERICENTER":121.1212,"MEAN_ANOMALY":338.0313,"EPHEMERIS_TYPE":0,"CLASSIFICATION_TYPE":"U","NORAD_CAT_ID":55239,"ELEMENT_SET_NO":999,"REV_AT_EPOCH":1791,"BSTAR":0,"MEAN_MOTION_DOT":-3.29e-6,"MEAN_MOTION_DDOT":0},{"OBJECT_NAME":"USA 342","OBJECT_ID":"2023-008A","EPOCH":"2026-03-30T06:15:32.040000","MEAN_MOTION":1.0027433,"ECCENTRICITY":2.85e-5,"INCLINATION":0.0088,"RA_OF_ASC_NODE":210.8866,"ARG_OF_PERICENTER":240.4342,"MEAN_ANOMALY":214.0288,"EPHEMERIS_TYPE":0,"CLASSIFICATION_TYPE":"U","NORAD_CAT_ID":55263,"ELEMENT_SET_NO":999,"REV_AT_EPOCH":1172,"BSTAR":0,"MEAN_MOTION_DOT":1.21e-6,"MEAN_MOTION_DDOT":0},{"OBJECT_NAME":"LDPE-3A","OBJECT_ID":"2023-008B","EPOCH":"2026-03-31T09:22:03.914112","MEAN_MOTION":0.99991805,"ECCENTRICITY":2.38e-5,"INCLINATION":2.1464,"RA_OF_ASC_NODE":82.6238,"ARG_OF_PERICENTER":302.2397,"MEAN_ANOMALY":95.3188,"EPHEMERIS_TYPE":0,"CLASSIFICATION_TYPE":"U","NORAD_CAT_ID":55264,"ELEMENT_SET_NO":999,"REV_AT_EPOCH":1104,"BSTAR":0,"MEAN_MOTION_DOT":-2.56e-6,"MEAN_MOTION_DDOT":0},{"OBJECT_NAME":"ELEKTRO-L 4","OBJECT_ID":"2023-016A","EPOCH":"2026-04-01T00:18:58.019328","MEAN_MOTION":1.00273991,"ECCENTRICITY":0.0001291,"INCLINATION":0.0531,"RA_OF_ASC_NODE":340.4397,"ARG_OF_PERICENTER":316.5408,"MEAN_ANOMALY":62.9891,"EPHEMERIS_TYPE":0,"CLASSIFICATION_TYPE":"U","NORAD_CAT_ID":55506,"ELEMENT_SET_NO":999,"REV_AT_EPOCH":1156,"BSTAR":0,"MEAN_MOTION_DOT":-6.9e-7,"MEAN_MOTION_DDOT":0},{"OBJECT_NAME":"AMAZONAS NEXUS","OBJECT_ID":"2023-017A","EPOCH":"2026-03-31T23:26:38.728032","MEAN_MOTION":1.00267315,"ECCENTRICITY":0.0005354,"INCLINATION":0.0188,"RA_OF_ASC_NODE":76.1075,"ARG_OF_PERICENTER":307.6535,"MEAN_ANOMALY":96.2497,"EPHEMERIS_TYPE":0,"CLASSIFICATION_TYPE":"U","NORAD_CAT_ID":55508,"ELEMENT_SET_NO":999,"REV_AT_EPOCH":627,"BSTAR":0,"MEAN_MOTION_DOT":0,"MEAN_MOTION_DDOT":0},{"OBJECT_NAME":"ZHONGXING-26","OBJECT_ID":"2023-023A","EPOCH":"2026-03-30T23:51:15.870816","MEAN_MOTION":1.00269444,"ECCENTRICITY":0.00041062,"INCLINATION":0.0661,"RA_OF_ASC_NODE":63.4044,"ARG_OF_PERICENTER":346.9958,"MEAN_ANOMALY":260.8813,"EPHEMERIS_TYPE":0,"CLASSIFICATION_TYPE":"U","NORAD_CAT_ID":55686,"ELEMENT_SET_NO":999,"REV_AT_EPOCH":1144,"BSTAR":0,"MEAN_MOTION_DOT":-3.69e-6,"MEAN_MOTION_DDOT":0},{"OBJECT_NAME":"GAOFEN-13 02","OBJECT_ID":"2023-036A","EPOCH":"2026-04-01T08:58:25.690080","MEAN_MOTION":1.00269046,"ECCENTRICITY":0.000488,"INCLINATION":1.0241,"RA_OF_ASC_NODE":351.3348,"ARG_OF_PERICENTER":338.6101,"MEAN_ANOMALY":142.5662,"EPHEMERIS_TYPE":0,"CLASSIFICATION_TYPE":"U","NORAD_CAT_ID":55912,"ELEMENT_SET_NO":999,"REV_AT_EPOCH":1132,"BSTAR":0,"MEAN_MOTION_DOT":-2.3e-6,"MEAN_MOTION_DDOT":0},{"OBJECT_NAME":"SES-18","OBJECT_ID":"2023-038A","EPOCH":"2026-04-01T10:42:28.891872","MEAN_MOTION":1.00272007,"ECCENTRICITY":0.000182,"INCLINATION":0.0354,"RA_OF_ASC_NODE":262.8641,"ARG_OF_PERICENTER":63.2514,"MEAN_ANOMALY":281.1969,"EPHEMERIS_TYPE":0,"CLASSIFICATION_TYPE":"U","NORAD_CAT_ID":55970,"ELEMENT_SET_NO":999,"REV_AT_EPOCH":1133,"BSTAR":0,"MEAN_MOTION_DOT":-1.11e-6,"MEAN_MOTION_DDOT":0},{"OBJECT_NAME":"SES-19","OBJECT_ID":"2023-038B","EPOCH":"2026-04-01T12:19:38.729280","MEAN_MOTION":1.00272262,"ECCENTRICITY":0.000178,"INCLINATION":0.0319,"RA_OF_ASC_NODE":277.1436,"ARG_OF_PERICENTER":90.5378,"MEAN_ANOMALY":232.1885,"EPHEMERIS_TYPE":0,"CLASSIFICATION_TYPE":"U","NORAD_CAT_ID":55971,"ELEMENT_SET_NO":999,"REV_AT_EPOCH":1131,"BSTAR":0,"MEAN_MOTION_DOT":7.8e-7,"MEAN_MOTION_DDOT":0},{"OBJECT_NAME":"INTELSAT 40E (IS-40E)","OBJECT_ID":"2023-052A","EPOCH":"2026-04-01T09:03:15.907680","MEAN_MOTION":1.00269491,"ECCENTRICITY":6.88e-5,"INCLINATION":0.0111,"RA_OF_ASC_NODE":193.1687,"ARG_OF_PERICENTER":215.1141,"MEAN_ANOMALY":186.2629,"EPHEMERIS_TYPE":0,"CLASSIFICATION_TYPE":"U","NORAD_CAT_ID":56174,"ELEMENT_SET_NO":999,"REV_AT_EPOCH":1105,"BSTAR":0,"MEAN_MOTION_DOT":-1.84e-6,"MEAN_MOTION_DDOT":0},{"OBJECT_NAME":"VIASAT-3 F1","OBJECT_ID":"2023-060A","EPOCH":"2026-04-01T10:46:28.510176","MEAN_MOTION":1.00270352,"ECCENTRICITY":8.23e-5,"INCLINATION":0.0145,"RA_OF_ASC_NODE":237.6111,"ARG_OF_PERICENTER":219.0072,"MEAN_ANOMALY":165.894,"EPHEMERIS_TYPE":0,"CLASSIFICATION_TYPE":"U","NORAD_CAT_ID":56370,"ELEMENT_SET_NO":999,"REV_AT_EPOCH":1066,"BSTAR":0,"MEAN_MOTION_DOT":-1.95e-6,"MEAN_MOTION_DDOT":0},{"OBJECT_NAME":"ARCTURUS","OBJECT_ID":"2023-060B","EPOCH":"2026-04-01T11:32:31.594272","MEAN_MOTION":1.00272455,"ECCENTRICITY":0.0001069,"INCLINATION":2.5777,"RA_OF_ASC_NODE":80.898,"ARG_OF_PERICENTER":313.675,"MEAN_ANOMALY":40.875,"EPHEMERIS_TYPE":0,"CLASSIFICATION_TYPE":"U","NORAD_CAT_ID":56371,"ELEMENT_SET_NO":999,"REV_AT_EPOCH":1068,"BSTAR":0,"MEAN_MOTION_DOT":-7.0e-7,"MEAN_MOTION_DDOT":0}]
